TDRS 3                  
1 19548U 88091B   22019.16784015 -.00000286  00000+0  00000+0 0  9994
2 19548  13.8197 352.5033 0040899 328.2270 169.3726  1.00277164109241
FLTSATCOM 8 (USA 46)    
1 20253U 89077A   22019.47005826 -.00000068  00000+0  00000+0 0  9992
2 20253  12.9009   1.2450 0001544  74.1519 284.5976  1.00274087244468
SKYNET 4C               
1 20776U 90079A   22019.11993868  .00000137  00000+0  00000+0 0  9995
2 20776  13.8468   1.1950 0003448 299.5952 254.7212  1.00268170114745
TDRS 5                  
1 21639U 91054B   22019.61636772  .00000095  00000+0  00000+0 0  9994
2 21639  14.2463   5.8299 0026386 350.8658 176.4708  1.00273278111574
TDRS 6                  
1 22314U 93003B   22019.39060494 -.00000284  00000+0  00000+0 0  9999
2 22314  14.1195   9.0575 0006178  95.5875 108.8906  1.00269200106269
UFO 2 (USA 95)          
1 22787U 93056A   22019.17430102  .00000137  00000+0  00000+0 0  9990
2 22787  11.4303  11.9613 0004443 273.8034 284.2660  1.00273140102406
USA 99 (MILSTAR-1 1)    
1 22988U 94009A   22019.07888421 -.00000190  00000+0  00000+0 0  9992
2 22988  15.1037  44.7064 0003351 254.0175 118.1409  1.00271778 16823
USA 107 (DSP 17)        
1 23435U 94084A   22019.52282826 -.00000156  00000+0  00000+0 0  9992
2 23435  14.5860   6.9650 0000435 297.2017 266.4311  1.00275085 16816
UFO 4 (USA 108)         
1 23467U 95003A   22019.60006066 -.00000012  00000+0  00000+0 0  9999
2 23467   9.8276  18.4238 0001005 309.4884 179.3728  1.00271559 98817
AMSC 1                  
1 23553U 95019A   22019.61614156 -.00000084  00000+0  00000+0 0  9997
2 23553  11.8076  27.2079 0006247 288.7227 277.3471  1.00272593 98035
TDRS 7                  
1 23613U 95035B   22019.47250037 -.00000188  00000+0  00000+0 0  9995
2 23613  14.0314 359.7379 0026972  41.0397 332.8371  1.00268215 97113
USA 113                 
1 23628U 95038A   22019.47642521 -.00000330  00000+0  00000+0 0  9996
2 23628  11.9468  26.0255 0002795 280.3174  87.8589  1.00269439 16837
USA 115 (MILSTAR-1 2)   
1 23712U 95060A   22019.60653299 -.00000009  00000+0  00000+0 0  9997
2 23712  13.4657  15.3977 0003367 280.5977 281.3213  1.00271643 16744
INMARSAT 3-F1           
1 23839U 96020A   22019.54715924 -.00000238  00000+0  00000+0 0  9995
2 23839   7.2345  59.0594 0003097 246.8409 108.5091  0.99980895 94152
INMARSAT 3-F2           
1 24307U 96053A   22019.37952566 -.00000199  00000+0  00000+0 0  9994
2 24307   6.1825  68.0921 0003764 278.8855 246.4870  1.00002323 92822
AMC-1 (GE-1)            
1 24315U 96054A   22019.60060902  .00000074  00000+0  00000+0 0  9995
2 24315   5.2687  74.4035 0003659 230.1988 259.6603  1.00271989 30182
INMARSAT 3-F3           
1 24674U 96070A   22019.58953414  .00000125  00000+0  00000+0 0  9994
2 24674   6.8160  62.7476 0004360 240.2446 247.0579  0.99988348 91814
GALAXY 25 (G-25)        
1 24812U 97026A   22019.54070508  .00000006  00000+0  00000+0 0  9998
2 24812   3.3232  85.1518 0004636 198.4893  96.0081  1.00271449 90237
INTELSAT 5 (IS-5)       
1 24916U 97046A   22019.59217015  .00000097  00000+0  00000+0 0  9996
2 24916   6.9124  62.0750 0003815 225.8265 267.2193  1.00272787 89486
AMC-3 (GE-3)            
1 24936U 97050A   22019.29055649 -.00000251  00000+0  00000+0 0  9996
2 24936   4.1811  80.8829 0003373 222.6303 207.7267  1.00272244 36293
USA 134                 
1 25019U 97065A   22019.61321965 -.00000052  00000+0  00000+0 0  9997
2 25019  10.8813  32.4168 0005466 311.5076 243.7860  1.00271464 16819
ASTRA 1G                
1 25071U 97076A   22019.26951831  .00000123  00000+0  00000+0 0  9997
2 25071   5.9047  69.4176 0004230 224.8110 300.8204  1.00270063 88363
INMARSAT 3-F5           
1 25153U 98006B   22019.44493939 -.00000281  00000+0  00000+0 0  9998
2 25153   6.0686  66.8453 0005397 232.0165 286.1212  1.00274176 87756
UFO 8 (USA 138)         
1 25258U 98016A   22019.44414174 -.00000016  00000+0  00000+0 0  9995
2 25258   9.2655  30.4956 0003284 255.7911 164.0594  1.00269498 87716
ASTRA 2A                
1 25462U 98050A   22019.53311708  .00000158  00000+0  00000+0 0  9995
2 25462   3.0333  87.1760 0002545 206.2086  45.3744  1.00270774 30190
JCSAT-4A                
1 25630U 99006A   22019.61078063  .00000057  00000+0  00000+0 0  9995
2 25630   5.9006  69.8934 0023620 358.4627 154.3944  0.98808821   302
SKYNET 4E               
1 25639U 99009B   22019.24015082 -.00000023  00000+0  00000+0 0  9992
2 25639  11.1720  17.7306 0002776 287.5008 258.5926  1.00274422 35248
ABS-7                   
1 25894U 99046A   22019.53425093  .00000165  00000+0  00000+0 0  9991
2 25894   2.3893  89.2709 0003235 206.8840  49.1172  1.00269404 80986
ABS-6                   
1 25924U 99053A   22019.59001603 -.00000108  00000+0  00000+0 0  9994
2 25924   0.0350 328.0057 0001530 333.4471 188.9200  1.00270873 81714
AMC-4 (GE-4)            
1 25954U 99060A   22019.59380130  .00000098  00000+0  00000+0 0  9997
2 25954   1.1464  93.5832 0003360 212.0634 252.1629  1.00272753 27411
UFO 10 (USA 146)        
1 25967U 99063A   22019.37935123 -.00000178  00000+0  00000+0 0  9998
2 25967   8.5317  33.9260 0002216 270.5566 287.9174  1.00267387 81203
GALAXY 11 (G-11)        
1 26038U 99071A   22019.43717696 -.00000153  00000+0  00000+0 0  9990
2 26038   2.6414  89.6997 0000235  75.4836  17.8864  1.00271506 80946
USA 148                 
1 26052U 00001A   22019.45317747  .00000049  00000+0  00000+0 0  9999
2 26052   9.3036  43.2941 0002591 259.6080 159.3440  1.00276015 16823
ASIASTAR                
1 26107U 00016A   22019.54846750 -.00000325  00000+0  00000+0 0  9995
2 26107   5.3335  73.1721 0004222 224.5386 123.6580  1.00271665 79771
USA 149 (DSP 20)        
1 26356U 00024A   22019.61849795  .00000105  00000+0  00000+0 0  9995
2 26356  11.9727  22.4803 0001440 317.0616 196.5687  1.00263725 16772
TDRS 8                  
1 26388U 00034A   22019.54524043 -.00000226  00000+0  00000+0 0  9994
2 26388  10.1329  43.5807 0019260 324.6117  36.3552  1.00271659 79049
INTELSAT 9 (IS-9)       
1 26451U 00043A   22019.55722510 -.00000279  00000+0  00000+0 0  9993
2 26451   6.8977  62.2527 0002754 226.3727 340.8936  1.00271499 78706
NSS-11 (AAP-1)          
1 26554U 00059A   22019.60290990  .00000037  00000+0  00000+0 0  9993
2 26554   0.0316 314.8692 0002832 350.1064 207.0303  1.00273137 25164
USA 153                 
1 26575U 00065A   22019.48253046 -.00000316  00000+0  00000+0 0  9991
2 26575   8.8487  46.6251 0002365 264.8094 115.5425  1.00268950 16792
AMC-6 (GE-6)            
1 26580U 00067A   22019.59031444  .00000116  00000+0  00000+0 0  9994
2 26580   0.0456 283.0190 0002943  17.1841 252.2441  1.00271090 77780
INTELSAT 1R (IS-1R)     
1 26608U 00072A   22019.58681167 -.00000130  00000+0  00000+0 0  9990
2 26608   4.0686  81.5138 0000873   4.9208  40.8605  1.00271328 25188
ANIK F1                 
1 26624U 00076A   22019.61528912 -.00000051  00000+0  00000+0 0  9996
2 26624   1.0610  94.5175 0002428 228.5520 268.2313  1.00272508 27000
ASTRA 2D                
1 26638U 00081A   22019.24512227  .00000138  00000+0  00000+0 0  9993
2 26638   6.9795  61.3033 0002189 230.0056 299.2043  1.00273446 36763
AMC-8 (GE-8)            
1 26639U 00081B   22019.59387299  .00000098  00000+0  00000+0 0  9996
2 26639   2.0751  90.2062 0002705 211.0137 256.4977  1.00271889 77191
USA 157 (MILSTAR-2 2)   
1 26715U 01009A   22019.56846491  .00000024  00000+0  00000+0 0  9992
2 26715   9.8710  27.8431 0002466 277.7971 253.6983  1.00269578 16811
EUTELSAT 133 WEST A     
1 26719U 01011A   22019.59621972  .00000087  00000+0  00000+0 0  9996
2 26719   3.3487  84.1823 0003316 214.5607 261.9807  1.00269975 76405
INTELSAT 10 (IS-10)     
1 26766U 01019A   22019.60447187  .00000043  00000+0  00000+0 0  9994
2 26766   5.2268  74.6294 0003631 228.1359 211.5943  1.00271808 29482
INTELSAT 901 (IS-901)   
1 26824U 01024A   22019.45025971 -.00000191  00000+0  00000+0 0  9996
2 26824   0.0167 298.6014 0000940  16.7423 298.0815  1.00267729  6838
ASTRA 2C                
1 26853U 01025A   22019.22593424 -.00000250  00000+0  00000+0 0  9993
2 26853   4.2068  80.6814 0003088 211.9900 194.7582  1.00275099 28902
USA 159 (DSP 21)        
1 26880U 01033A   22019.37420535 -.00000287  00000+0  00000+0 0  9990
2 26880  11.2900  26.6931 0000857 322.1482 215.5554  1.00272310 16828
INTELSAT 902 (IS-902)   
1 26900U 01039A   22019.47056278 -.00000272  00000+0  00000+0 0  9993
2 26900   2.0328  90.6692 0003400 210.7471 296.7209  1.00272264 74555
USA 164 (MILSTAR-2 3)   
1 27168U 02001A   22019.27169340  .00000111  00000+0  00000+0 0  9994
2 27168   9.3519  29.6216 0002594 260.2645 305.5755  1.00277263 15503
ECHOSTAR 7              
1 27378U 02006A   22019.60738903  .00000011  00000+0  00000+0 0  9995
2 27378   0.0562 281.5768 0002442  56.3745 240.8560  1.00272394 34461
INTELSAT 904 (IS-904)   
1 27380U 02007A   22019.44982361 -.00000204  00000+0  00000+0 0  9995
2 27380   2.8657  87.5366 0003222 214.0962 309.6072  1.00271943 35628
TDRS 9                  
1 27389U 02011A   22019.01277278 -.00000279  00000+0  00000+0 0  9998
2 27389   8.7038  62.1823 0027671 290.1481  68.4273  1.00272448 74297
ASTRA 3A                
1 27400U 02015B   22019.22621300 -.00000195  00000+0  00000+0 0  9995
2 27400   7.0862  60.1483 0001873 234.0489 179.0292  1.00270665 72588
NSS-7                   
1 27414U 02019A   22019.37996177 -.00000149  00000+0  00000+0 0  9996
2 27414   5.5527  72.5270 0002819 232.5144 290.4773  1.00271828 72424
DIRECTV 5 (TEMPO 1)     
1 27426U 02023A   22019.61422027 -.00000045  00000+0  00000+0 0  9994
2 27426   0.7539  94.9931 0003749 219.3386 275.6315  1.00271900 71981
INTELSAT 905 (IS-905)   
1 27438U 02027A   22019.45087023 -.00000175  00000+0  00000+0 0  9990
2 27438   2.6878  88.3026 0002917 208.2895 320.0405  1.00272738 35223
